start=new Date('2023-04-02T00:00:00.000Z').valueOf();
sats=[{"OBJECT_TYPE":"PAYLOAD","OBJECT_ID":"2020-070AL","SEMIMAJOR_AXIS":"6925.136","BSTAR":"0.00150670000000","REF_FRAME":"TEME","GP_ID":"229274578","PERIAPSIS":"546.306","MEAN_ANOMALY":"265.6630","MEAN_ELEMENT_THEORY":"SGP4","MEAN_MOTION":"15.06469444","PERIOD":"95.588","EPHEMERIS_TYPE":"0","TLE_LINE2":"2 46566  53.0531 292.7360 0001003  94.4473 265.6630 15.06469444138081","COUNTRY_CODE":"US","CLASSIFICATION_TYPE":"U","ECCENTRICITY":"0.00010030","FILE":"3877516","NORAD_CAT_ID":"46566","REV_AT_EPOCH":"13808","EPOCH":"2023-04-01T20:38:01.510080","APOAPSIS":"547.695","INCLINATION":"53.0531","CENTER_NAME":"EARTH","SITE":"AFETR","LAUNCH_DATE":"2020-10-06","OBJECT_NAME":"STARLINK-1740","ARG_OF_PERICENTER":"94.4473","RCS_SIZE":"LARGE","TLE_LINE1":"1 46566U 20070AL  23091.85973970  .00022274  00000-0  15067-2 0  9997","ELEMENT_SET_NO":"999","DECAY_DATE":null,"MEAN_MOTION_DDOT":"0.0000000000000","RA_OF_ASC_NODE":"292.7360","MEAN_MOTION_DOT":"0.00022274","TIME_SYSTEM":"UTC"},{"PERIAPSIS":"546.359","GP_ID":"229274828","BSTAR":"0.00178290000000","REF_FRAME":"TEME","SEMIMAJOR_AXIS":"6925.230","OBJECT_ID":"2020-070AM","OBJECT_TYPE":"PAYLOAD","PERIOD":"95.590","TLE_LINE2":"2 46567  53.0529 292.9077 0001063  94.4018 265.7092 15.06438769138086","EPHEMERIS_TYPE":"0","COUNTRY_CODE":"US","CLASSIFICATION_TYPE":"U","MEAN_ELEMENT_THEORY":"SGP4","MEAN_MOTION":"15.06438769","MEAN_ANOMALY":"265.7092","NORAD_CAT_ID":"46567","REV_AT_EPOCH":"13808","FILE":"3877516","ECCENTRICITY":"0.00010630","SITE":"AFETR","APOAPSIS":"547.831","INCLINATION":"53.0529","CENTER_NAME":"EARTH","EPOCH":"2023-04-01T19:45:01.914048","LAUNCH_DATE":"2020-10-06","ELEMENT_SET_NO":"999","DECAY_DATE":null,"RCS_SIZE":"LARGE","TLE_LINE1":"1 46567U 20070AM  23091.82293882  .00026402  00000-0  17829-2 0  9997","OBJECT_NAME":"STARLINK-1741","ARG_OF_PERICENTER":"94.4018","MEAN_MOTION_DDOT":"0.0000000000000","TIME_SYSTEM":"UTC","MEAN_MOTION_DOT":"0.00026402","RA_OF_ASC_NODE":"292.9077"},{"TLE_LINE1":"1 46569U 20070AP  23091.83768774  .00019321  00000-0  13118-2 0  9996","RCS_SIZE":"LARGE","ELEMENT_SET_NO":"999","DECAY_DATE":null,"ARG_OF_PERICENTER":"62.9736","OBJECT_NAME":"STARLINK-1747","LAUNCH_DATE":"2020-10-06","RA_OF_ASC_NODE":"292.8345","MEAN_MOTION_DOT":"0.00019321","TIME_SYSTEM":"UTC","MEAN_MOTION_DDOT":"0.0000000000000","MEAN_MOTION":"15.06418090","MEAN_ELEMENT_THEORY":"SGP4","EPHEMERIS_TYPE":"0","TLE_LINE2":"2 46569  53.0523 292.8345 0000622  62.9736 297.1317 15.06418090138080","COUNTRY_CODE":"US","CLASSIFICATION_TYPE":"U","PERIOD":"95.591","MEAN_ANOMALY":"297.1317","BSTAR":"0.00131180000000","REF_FRAME":"TEME","GP_ID":"229275078","PERIAPSIS":"546.727","OBJECT_ID":"2020-070AP","OBJECT_TYPE":"PAYLOAD","SEMIMAJOR_AXIS":"6925.293","SITE":"AFETR","EPOCH":"2023-04-01T20:06:16.220736","INCLINATION":"53.0523","CENTER_NAME":"EARTH","APOAPSIS":"547.589","REV_AT_EPOCH":"13808","NORAD_CAT_ID":"46569","ECCENTRICITY":"0.00006220","FILE":"3877516"},{"MEAN_MOTION_DDOT":"0.0000000000000","RA_OF_ASC_NODE":"279.1067","MEAN_MOTION_DOT":"0.00015776","TIME_SYSTEM":"UTC","LAUNCH_DATE":"2020-10-06","ARG_OF_PERICENTER":"161.7098","OBJECT_NAME":"STARLINK-1748","TLE_LINE1":"1 46570U 20070AQ  23091.81839978  .00015776  00000-0  70452-3 0  9996","RCS_SIZE":"LARGE","ELEMENT_SET_NO":"999","DECAY_DATE":null,"ECCENTRICITY":"0.00033970","FILE":"3877516","REV_AT_EPOCH":"13827","NORAD_CAT_ID":"46570","EPOCH":"2023-04-01T19:38:29.740992","CENTER_NAME":"EARTH","INCLINATION":"53.0555","APOAPSIS":"503.566","SITE":"AFETR","OBJECT_ID":"2020-070AQ","OBJECT_TYPE":"PAYLOAD","SEMIMAJOR_AXIS":"6879.364","BSTAR":"0.00070452000000","REF_FRAME":"TEME","PERIAPSIS":"498.892","GP_ID":"229274328","MEAN_ANOMALY":"198.4020","MEAN_MOTION":"15.21529284","MEAN_ELEMENT_THEORY":"SGP4","CLASSIFICATION_TYPE":"U","TLE_LINE2":"2 46570  53.0555 279.1067 0003397 161.7098 198.4020 15.21529284138277","COUNTRY_CODE":"US","EPHEMERIS_TYPE":"0","PERIOD":"94.642"},{"SEMIMAJOR_AXIS":"6925.291","OBJECT_ID":"2020-070AS","OBJECT_TYPE":"PAYLOAD","PERIAPSIS":"546.640","GP_ID":"229274078","REF_FRAME":"TEME","BSTAR":"0.00197700000000","MEAN_ANOMALY":"267.4983","PERIOD":"95.591","TLE_LINE2":"2 46572  53.0530 312.6615 0000745  92.6091 267.4983 15.06418882137800","EPHEMERIS_TYPE":"0","COUNTRY_CODE":"US","CLASSIFICATION_TYPE":"U","MEAN_ELEMENT_THEORY":"SGP4","MEAN_MOTION":"15.06418882","FILE":"3877516","ECCENTRICITY":"0.00007450","NORAD_CAT_ID":"46572","REV_AT_EPOCH":"13780","APOAPSIS":"547.672","INCLINATION":"53.0530","CENTER_NAME":"EARTH","EPOCH":"2023-04-01T21:00:37.818144","SITE":"AFETR","LAUNCH_DATE":"2020-10-06","OBJECT_NAME":"STARLINK-1531","ARG_OF_PERICENTER":"92.6091","DECAY_DATE":null,"ELEMENT_SET_NO":"999","RCS_SIZE":"LARGE","TLE_LINE1":"1 46572U 20070AS  23091.87543771  .00029304  00000-0  19770-2 0  9994","MEAN_MOTION_DDOT":"0.0000000000000","TIME_SYSTEM":"UTC","MEAN_MOTION_DOT":"0.00029304","RA_OF_ASC_NODE":"312.6615"},{"LAUNCH_DATE":"2020-10-06","ELEMENT_SET_NO":"999","DECAY_DATE":null,"TLE_LINE1":"1 46573U 20070AT  23092.00001157  .00173382  00000-0  14686-2 0  9995","RCS_SIZE":"LARGE","ARG_OF_PERICENTER":"259.7991","OBJECT_NAME":"STARLINK-1650","MEAN_MOTION_DDOT":"0.0000000000000","TIME_SYSTEM":"UTC","RA_OF_ASC_NODE":"257.5024","MEAN_MOTION_DOT":"0.00173382","GP_ID":"229275329","PERIAPSIS":"360.116","REF_FRAME":"TEME","BSTAR":"0.00146860000000","SEMIMAJOR_AXIS":"6740.903","OBJECT_ID":"2020-070AT","OBJECT_TYPE":"PAYLOAD","TLE_LINE2":"2 46573  53.0474 257.5024 0003935 259.7991 113.4906 15.68648436  1306","COUNTRY_CODE":"US","CLASSIFICATION_TYPE":"U","EPHEMERIS_TYPE":"0","PERIOD":"91.799","MEAN_MOTION":"15.68648436","MEAN_ELEMENT_THEORY":"SGP4","MEAN_ANOMALY":"113.4906","REV_AT_EPOCH":"130","NORAD_CAT_ID":"46573","FILE":"3877516","ECCENTRICITY":"0.00039350","SITE":"AFETR","INCLINATION":"53.0474","CENTER_NAME":"EARTH","APOAPSIS":"365.421","EPOCH":"2023-04-02T00:00:00.999648"},{"MEAN_MOTION_DDOT":"0.0000000000000","RA_OF_ASC_NODE":"297.8334","MEAN_MOTION_DOT":"0.00021343","TIME_SYSTEM":"UTC","LAUNCH_DATE":"2020-10-06","RCS_SIZE":"LARGE","TLE_LINE1":"1 46574U 20070AU  23091.83906733  .00021343  00000-0  14462-2 0  9991","DECAY_DATE":null,"ELEMENT_SET_NO":"999","ARG_OF_PERICENTER":"89.8834","OBJECT_NAME":"STARLINK-1660","REV_AT_EPOCH":"13801","NORAD_CAT_ID":"46574","ECCENTRICITY":"0.00009100","FILE":"3877516","SITE":"AFETR","EPOCH":"2023-04-01T20:08:15.417312","INCLINATION":"53.0527","CENTER_NAME":"EARTH","APOAPSIS":"547.751","REF_FRAME":"TEME","BSTAR":"0.00144620000000","PERIAPSIS":"546.491","GP_ID":"229275579","OBJECT_ID":"2020-070AU","OBJECT_TYPE":"PAYLOAD","SEMIMAJOR_AXIS":"6925.256","MEAN_MOTION":"15.06430209","MEAN_ELEMENT_THEORY":"SGP4","EPHEMERIS_TYPE":"0","TLE_LINE2":"2 46574  53.0527 297.8334 0000910  89.8834 270.2259 15.06430209138016","COUNTRY_CODE":"US","CLASSIFICATION_TYPE":"U","PERIOD":"95.590","MEAN_ANOMALY":"270.2259"},{"LAUNCH_DATE":"2020-10-06","RCS_SIZE":"LARGE","TLE_LINE1":"1 46575U 20070AV  23091.76210191  .00019171  00000-0  13022-2 0  9997","DECAY_DATE":null,"ELEMENT_SET_NO":"999","OBJECT_NAME":"STARLINK-1675","ARG_OF_PERICENTER":"93.4318","MEAN_MOTION_DDOT":"0.0000000000000","MEAN_MOTION_DOT":"0.00019171","RA_OF_ASC_NODE":"273.1802","TIME_SYSTEM":"UTC","BSTAR":"0.00130220000000","REF_FRAME":"TEME","PERIAPSIS":"546.105","GP_ID":"229273829","OBJECT_TYPE":"PAYLOAD","OBJECT_ID":"2020-070AV","SEMIMAJOR_AXIS":"6925.332","MEAN_ELEMENT_THEORY":"SGP4","MEAN_MOTION":"15.06405241","PERIOD":"95.592","TLE_LINE2":"2 46575  53.0513 273.1802 0001577  93.4318 266.6852 15.06405241138349","COUNTRY_CODE":"US","CLASSIFICATION_TYPE":"U","EPHEMERIS_TYPE":"0","MEAN_ANOMALY":"266.6852","NORAD_CAT_ID":"46575","REV_AT_EPOCH":"13834","ECCENTRICITY":"0.00015770","FILE":"3877516","SITE":"AFETR","EPOCH":"2023-04-01T18:17:25.605024","APOAPSIS":"548.290","CENTER_NAME":"EARTH","INCLINATION":"53.0513"},{"DECAY_DATE":null,"ELEMENT_SET_NO":"999","TLE_LINE1":"1 46576U 20070AW  23091.83169831  .00027036  00000-0  18272-2 0  9991","RCS_SIZE":"LARGE","ARG_OF_PERICENTER":"74.6269","OBJECT_NAME":"STARLINK-1677","LAUNCH_DATE":"2020-10-06","TIME_SYSTEM":"UTC","RA_OF_ASC_NODE":"297.8650","MEAN_MOTION_DOT":"0.00027036","MEAN_MOTION_DDOT":"0.0000000000000","CLASSIFICATION_TYPE":"U","TLE_LINE2":"2 46576  53.0526 297.8650 0001268  74.6269 285.4859 15.06395714138014","COUNTRY_CODE":"US","EPHEMERIS_TYPE":"0","PERIOD":"95.592","MEAN_MOTION":"15.06395714","MEAN_ELEMENT_THEORY":"SGP4","MEAN_ANOMALY":"285.4859","PERIAPSIS":"546.349","GP_ID":"229274579","REF_FRAME":"TEME","BSTAR":"0.00182720000000","SEMIMAJOR_AXIS":"6925.362","OBJECT_TYPE":"PAYLOAD","OBJECT_ID":"2020-070AW","SITE":"AFETR","INCLINATION":"53.0526","CENTER_NAME":"EARTH","APOAPSIS":"548.105","EPOCH":"2023-04-01T19:57:38.733984","REV_AT_EPOCH":"13801","NORAD_CAT_ID":"46576","FILE":"3877516","ECCENTRICITY":"0.00012680"},{"INCLINATION":"53.0537","CENTER_NAME":"EARTH","APOAPSIS":"547.877","EPOCH":"2023-04-01T20:40:06.488544","SITE":"AFETR","FILE":"3877516","ECCENTRICITY":"0.00011360","REV_AT_EPOCH":"13801","NORAD_CAT_ID":"46577","MEAN_ANOMALY":"277.8700","TLE_LINE2":"2 46577  53.0537 297.7336 0001136  82.2418 277.8700 15.06440141138017","EPHEMERIS_TYPE":"0","COUNTRY_CODE":"US","CLASSIFICATION_TYPE":"U","PERIOD":"95.590","MEAN_MOTION":"15.06440141","MEAN_ELEMENT_THEORY":"SGP4","SEMIMAJOR_AXIS":"6925.226","OBJECT_ID":"2020-070AX","OBJECT_TYPE":"PAYLOAD","GP_ID":"229274829","PERIAPSIS":"546.304","BSTAR":"0.00180830000000","REF_FRAME":"TEME","TIME_SYSTEM":"UTC","MEAN_MOTION_DOT":"0.00026785","RA_OF_ASC_NODE":"297.7336","MEAN_MOTION_DDOT":"0.0000000000000","ARG_OF_PERICENTER":"82.2418","OBJECT_NAME":"STARLINK-1682","ELEMENT_SET_NO":"999","DECAY_DATE":null,"TLE_LINE1":"1 46577U 20070AX  23091.86118621  .00026785  00000-0  18083-2 0  9996","RCS_SIZE":"LARGE","LAUNCH_DATE":"2020-10-06"}];
